[{"OBJECT_NAME":"SALSAT","OBJECT_ID":"2020-068K","EPOCH":"2026-03-09T22:26:21.804576","MEAN_MOTION":15.28191989,"ECCENTRICITY":0.00082652,"INCLINATION":97.8859,"RA_OF_ASC_NODE":66.0795,"ARG_OF_PERICENTER":295.8051,"MEAN_ANOMALY":64.2334,"EPHEMERIS_TYPE":0,"CLASSIFICATION_TYPE":"U","NORAD_CAT_ID":46495,"ELEMENT_SET_NO":999,"REV_AT_EPOCH":30019,"BSTAR":0.00040842582,"MEAN_MOTION_DOT":0.00011156,"MEAN_MOTION_DDOT":0},{"OBJECT_NAME":"STARLINK-30603","OBJECT_ID":"2023-160F","EPOCH":"2026-03-09T02:03:07.299360","MEAN_MOTION":15.26740098,"ECCENTRICITY":8.567e-5,"INCLINATION":43.0002,"RA_OF_ASC_NODE":81.2749,"ARG_OF_PERICENTER":263.4844,"MEAN_ANOMALY":96.591,"EPHEMERIS_TYPE":0,"CLASSIFICATION_TYPE":"U","NORAD_CAT_ID":58080,"ELEMENT_SET_NO":999,"REV_AT_EPOCH":13285,"BSTAR":-0.00014195897,"MEAN_MOTION_DOT":-4.065e-5,"MEAN_MOTION_DDOT":0}]
